{
    "links": {
        "self": "http://www.neowsapp.com/rest/v1/neo/3825422?api_key=iIulBulltgU6a56xZRHN4H3l9WmuAYTsLGpBGhQ2"
    },
    "id": "3825422",
    "neo_reference_id": "3825422",
    "name": "(2018 MX4)",
    "designation": "2018 MX4",
    "nasa_jpl_url": "http://ssd.jpl.nasa.gov/sbdb.cgi?sstr=3825422",
    "absolute_magnitude_h": 26.7,
    "estimated_diameter": {
        "kilometers": {
            "estimated_diameter_min": 0.0121494041,
            "estimated_diameter_max": 0.0271668934
        },
        "meters": {
            "estimated_diameter_min": 12.14940408,
            "estimated_diameter_max": 27.1668934089
        },
        "miles": {
            "estimated_diameter_min": 0.0075492874,
            "estimated_diameter_max": 0.0168807197
        },
        "feet": {
            "estimated_diameter_min": 39.8602508817,
            "estimated_diameter_max": 89.1302305717
        }
    },
    "is_potentially_hazardous_asteroid": false,
    "close_approach_data": [
        {
            "close_approach_date": "2018-06-27",
            "close_approach_date_full": "2018-Jun-27 18:22",
            "epoch_date_close_approach": 1530123720000,
            "relative_velocity": {
                "kilometers_per_second": "7.9658805876",
                "kilometers_per_hour": "28677.1701152332",
                "miles_per_hour": "17818.8782863236"
            },
            "miss_distance": {
                "astronomical": "0.0141735016",
                "lunar": "5.5134921224",
                "kilometers": "2120325.649801592",
                "miles": "1317509.2650702896"
            },
            "orbiting_body": "Earth"
        },
        {
            "close_approach_date": "2039-05-15",
            "close_approach_date_full": "2039-May-15 09:11",
            "epoch_date_close_approach": 2189063460000,
            "relative_velocity": {
                "kilometers_per_second": "20.5639494294",
                "kilometers_per_hour": "74030.2179458731",
                "miles_per_hour": "45999.4984786454"
            },
            "miss_distance": {
                "astronomical": "0.4191232105",
                "lunar": "163.0389288845",
                "kilometers": "62699939.558361635",
                "miles": "38959935.845335163"
            },
            "orbiting_body": "Earth"
        }
    ],
    "orbital_data": {
        "orbit_id": "5",
        "orbit_determination_date": "2018-06-27 06:22:30",
        "first_observation_date": "2018-06-17",
        "last_observation_date": "2018-06-27",
        "data_arc_in_days": 10,
        "observations_used": 30,
        "orbit_uncertainty": "8",
        "minimum_orbit_intersection": ".00343052",
        "jupiter_tisserand_invariant": "3.350",
        "epoch_osculation": "2458291.5",
        "eccentricity": ".5603799441066012",
        "semi_major_axis": "2.318053814270274",
        "inclination": ".8425585361264847",
        "ascending_node_longitude": "100.0862197264195",
        "orbital_period": "1289.09136085893",
        "perihelion_distance": "1.019062947393404",
        "perihelion_argument": "189.5866368418025",
        "aphelion_distance": "3.617044681147143",
        "perihelion_time": "2458308.649544287982",
        "mean_anomaly": "355.2107072228303",
        "mean_motion": ".2792664747672575",
        "equinox": "J2000",
        "orbit_class": {
            "orbit_class_type": "AMO",
            "orbit_class_description": "Near-Earth asteroid orbits similar to that of 1221 Amor",
            "orbit_class_range": "1.017 AU < q (perihelion) < 1.3 AU"
        }
    },
    "is_sentry_object": false
}